EYESAT-1 (AO-27)        
1 22825U 93061C   18006.94341866  .00000007  00000-0  20653-4 0  9991
2 22825  98.8417 340.3258 0009481  96.0356 264.1906 14.30018587266250
CUTE-1 (CO-55)          
1 27844U 03031E   18006.97882655  .00000044  00000-0  39504-4 0  9990
2 27844  98.6885  18.0043 0010727 115.7085 244.5201 14.22087128753245
CUBESAT XI-IV (CO-57)   
1 27848U 03031J   18007.24536872  .00000024  00000-0  30945-4 0  9990
2 27848  98.6974  18.6080 0010562 124.0481 236.1701 14.21694889753165
CUBESAT XI 5            
1 28895U 05043F   18006.92487364  .00000128  00000-0  33327-4 0  9995
2 28895  97.8854 165.1365 0016117 215.5704 144.4425 14.63495019650054
CUTE-1.7+APD II (CO-65) 
1 32785U 08021C   18007.20472096  .00000183  00000-0  25540-4 0  9994
2 32785  97.5541  27.0191 0012410 206.5168 153.5416 14.88041407525233
COMPASS-1               
1 32787U 08021E   18007.13059306  .00000189  00000-0  23420-4 0  9994
2 32787  97.5411  37.0300 0012801 170.7514 189.3944 14.92876414525923
AAUSAT-II               
1 32788U 08021F   18007.03953464  .00000698  00000-0  70236-4 0  9994
2 32788  97.5385  40.1293 0012419 161.8952 198.2713 14.94180340526115
DELFI-C3 (DO-64)        
1 32789U 08021G   18007.23929784  .00001637  00000-0  11737-3 0  9999
2 32789  97.5347  65.9779 0013802 124.6408 235.6123 15.05655027527460
CANX-2                  
1 32790U 08021H   18007.08840273  .00000179  00000-0  25295-4 0  9994
2 32790  97.5535  25.1600 0013034 209.1735 150.8755 14.87752480525154
SEEDS II (CO-66)        
1 32791U 08021J   18007.01698267  .00000363  00000-0  42602-4 0  9998
2 32791  97.5473  31.8028 0013182 189.0933 171.0049 14.90438706525500
SWISSCUBE               
1 35932U 09051B   18006.95595400  .00000114  00000-0  36831-4 0  9990
2 35932  98.5212 154.4706 0007303 353.7248   6.3857 14.56107970439930
BEESAT                  
1 35933U 09051C   18007.06368996  .00000099  00000-0  33206-4 0  9997
2 35933  98.5251 156.0235 0005821   9.5972 350.5335 14.56217175440095
ITUPSAT 1               
1 35935U 09051E   18007.09650973  .00000082  00000-0  30049-4 0  9995
2 35935  98.5363 156.3117 0007987   0.5924 359.5280 14.55400680439894
TISAT 1                 
1 36799U 10035E   18007.15741723  .00000362  00000-0  42974-4 0  9990
2 36799  98.0841 139.3629 0012715  23.4455 336.7339 14.90661120405966
M-CUBED & EXP-1 PRIME   
1 37855U 11061F   18007.16964526  .00000701  00000-0  44309-4 0  9994
2 37855 101.7207 347.3262 0177889 198.5544 160.9126 15.03963937337443
HORYU 2                 
1 38340U 12025D   18007.08551011  .00000180  00000-0  34540-4 0  9994
2 38340  98.3749  23.2009 0011720   9.8038 350.3397 14.75479631292948
STRAND-1                
1 39090U 13009E   18007.04368118  .00000029  00000-0  25640-4 0  9993
2 39090  98.5340 215.3753 0010161  59.1698 301.0486 14.35005631254714
BRITE-AUSTRIA           
1 39091U 13009F   18007.53797752 -.00000002  00000-0  14448-4 0  9994
2 39091  98.5305 215.1878 0011522  64.4823 295.7553 14.35055840254804
UNIBRITE                
1 39092U 13009G   18007.55520605  .00000001  00000-0  15754-4 0  9997
2 39092  98.5316 214.8778 0010354  58.8193 301.4006 14.34930340254782
AIST-2                  
1 39133U 13015D   18007.45424684  .00000098  00000-0  19575-4 0  9990
2 39133  64.8737 359.9296 0034858 247.9119 111.8298 15.04466311259029
SOMP                    
1 39134U 13015E   18007.22114481  .00001001  00000-0  57297-4 0  9995
2 39134  64.8640 287.4194 0029490 231.3399 128.5089 15.18696503260453
BEESAT-3                
1 39135U 13015F   18007.24752500  .00000877  00000-0  54793-4 0  9996
2 39135  64.8701 298.6372 0030505 255.8296 103.9440 15.16301623259854
BEESAT-2                
1 39136U 13015G   18007.22755677  .00000707  00000-0  46765-4 0  9995
2 39136  64.8706 301.0619 0031606 253.8583 105.9063 15.15787233259805
NEE-01 PEGASUS          
1 39151U 13018B   18007.37907935  .00000146  00000-0  26360-4 0  9993
2 39151  97.9794 102.5900 0018448 108.4773 251.8445 14.79837496253735
CUBEBUG-1 (CAPITAN BETO)
1 39153U 13018D   18007.30420951  .00000196  00000-0  32576-4 0  9997
2 39153  97.9824 103.5067 0018346 106.7033 253.6194 14.80320693253798
ESTCUBE 1               
1 39161U 13021C   18007.47300181  .00000176  00000-0  35967-4 0  9995
2 39161  98.0197  95.7287 0008706 204.3373 155.7430 14.72006289250806
POPACS 1                
1 39268U 13055D   18007.11482513  .00002707  00000-0  76999-4 0  9993
2 39268  81.0029 155.0682 0642685 340.7357  17.0486 14.32942020221375
POPACS 2                
1 39269U 13055E   18007.17449065  .00001457  00000-0  41416-4 0  9992
2 39269  81.0147 173.7150 0695631  29.2141 334.6126 14.21324902220260
POPACS 3                
1 39270U 13055F   18007.45537158  .00001420  00000-0  43069-4 0  9992
2 39270  81.0156 183.7667 0722200  59.3068 307.7241 14.14152286219635
ZACUBE-1 (TSHEPISOSAT)  
1 39417U 13066B   18007.16468824  .00000192  00000-0  30828-4 0  9992
2 39417  97.6060  44.2452 0058222 323.6467  36.0798 14.80855416222961
WNISAT-1                
1 39423U 13066H   18007.53981266  .00000001  00000-0  95882-5 0  9991
2 39423  97.7058 344.2420 0175770 158.8524 202.0046 14.52911673218901
TRITON-1                
1 39427U 13066M   18006.99068842  .00000198  00000-0  39409-4 0  9999
2 39427  97.6365  13.6669 0115380  56.2573 304.9563 14.67593145220740
GOMX 1                  
1 39430U 13066Q   18007.48566168  .00000191  00000-0  43239-4 0  9991
2 39430  97.6804 356.1106 0152907 117.6333 244.0486 14.59001026219722
BRITE-PL                
1 39431U 13066R   18007.47332350 -.00000001  00000-0  10062-4 0  9994
2 39431  97.7357 332.4136 0201946 203.1772 156.0218 14.46900739217989
HUMSAT-D                
1 39433U 13066T   18007.12652733  .00000400  00000-0  44939-4 0  9990
2 39433  97.6275  68.9575 0029665 258.0428 101.7465 14.91711205223234
EAGLE 2                 
1 39436U 13066W   18006.87854485  .00040729  00000-0  61501-3 0  9993
2 39436  97.7118 130.0703 0005591  61.6049 298.5767 15.54619778228087
CUBEBUG-2 (LO-74)       
1 39440U 13066AA  18007.09448717  .00000194  00000-0  34159-4 0  9992
2 39440  97.6117  31.8231 0080529 359.7003   0.4146 14.75592930220961
NEE-02 KRYSAOR          
1 39441U 13066AB  18007.28731951  .00000129  00000-0  25542-4 0  9993
2 39441  97.6107  30.4172 0082072   3.4628 356.7132 14.74720654220902
FUNCUBE-1 (AO-73)       
1 39444U 13066AE  18007.04157999  .00000225  00000-0  34411-4 0  9996
2 39444  97.6074  45.4470 0057317 319.9855  39.7142 14.81617081221206
UWE-3                   
1 39446U 13066AG  18007.52842565  .00000181  00000-0  30929-4 0  9992
2 39446  97.6076  38.0644 0069747 340.7899  19.0684 14.78126200221386
BRITE-TORONTO           
1 40020U 14033L   18007.53426826  .00000067  00000-0  19800-4 0  9994
2 40020  97.8063 233.7927 0088447  37.3698 323.3614 14.66458989190047
DUCHIFAT-1              
1 40021U 14033M   18007.18001600  .00000498  00000-0  57255-4 0  9999
2 40021  97.9176 285.6097 0013012 355.5617   4.5483 14.90162104192974
FLOCK 1C-10             
1 40023U 14033P   18006.82991989  .00000186  00000-0  25690-4 0  9991
2 40023  97.9192 284.0699 0013210   3.2395 356.8924 14.89081816192808
NANOSATC-BR1            
1 40024U 14033Q   18007.20972699  .00000270  00000-0  34306-4 0  9990
2 40024  97.9122 284.1865 0012296 357.7423   2.3736 14.89446648192396
QB50P1                  
1 40025U 14033R   18007.16628015  .00000280  00000-0  36032-4 0  9995
2 40025  97.9092 282.8643 0012591   1.2817 358.8430 14.88611658192831
FLOCK 1C-7              
1 40026U 14033S   18007.01466213  .00000447  00000-0  52482-4 0  9992
2 40026  97.9226 285.2590 0011547   0.1225 359.9954 14.89826430192896
FLOCK 1C-1              
1 40027U 14033T   18007.32700818  .00001159  00000-0  12866-3 0  9991
2 40027  97.9216 284.8562 0013318 358.6802   1.4393 14.89147063192894
POPSAT-HIP-1            
1 40028U 14033U   18007.48512685  .00000431  00000-0  52456-4 0  9994
2 40028  97.9126 283.5190 0014034 358.5902   1.5244 14.88474019192860
FLOCK 1C-2              
1 40029U 14033V   18007.01688926  .00000255  00000-0  33012-4 0  9997
2 40029  97.9193 284.3865 0014559 356.4611   3.6480 14.89193340192848
FLOCK 1C-4              
1 40031U 14033X   18007.32350226  .00000982  00000-0  11027-3 0  9991
2 40031  97.9181 284.6326 0014574 353.1632   6.9408 14.89013476192866
QB50P2                  
1 40032U 14033Y   18007.20754452  .00000241  00000-0  32263-4 0  9992
2 40032  97.9055 281.8020 0011852 356.9339   3.1803 14.88161539192263
FLOCK 1C-11             
1 40033U 14033Z   18007.18192766  .00000426  00000-0  49576-4 0  9994
2 40033  97.9213 286.4061 0011920 347.2993  12.7943 14.90404451192976
ANTELSAT                
1 40034U 14033AA  18007.10344600  .00000229  00000-0  41737-4 0  9995
2 40034  97.8328 249.3996 0059017 358.1750   1.9234 14.73842288190953
FLOCK 1C-9              
1 40035U 14033AB  18007.33463331  .00000995  00000-0  11115-3 0  9990
2 40035  97.9226 285.1605 0012132 347.8650  12.2239 14.89221189192880
FLOCK 1C-6              
1 40036U 14033AC  18007.00520404  .00000990  00000-0  11024-3 0  9994
2 40036  97.9248 285.0989 0012452 351.0156   9.0820 14.89327094192851
PERSEUS-M2              
1 40037U 14033AD  18007.32023099  .00000105  00000-0  18155-4 0  9999
2 40037  97.9059 279.9315 0014473   2.6687 357.4603 14.86311867192633
FLOCK 1C-5              
1 40038U 14033AE  18007.01542869  .00000480  00000-0  56629-4 0  9991
2 40038  97.9244 284.8704 0014575 348.5926  11.4958 14.89295545192848
PERSEUS-M1              
1 40039U 14033AF  18007.30432667  .00000070  00000-0  14323-4 0  9998
2 40039  97.9062 279.3718 0014252 359.2235   0.8956 14.85934263192589
FLOCK 1C-8              
1 40040U 14033AG  18007.00773051  .00001272  00000-0  13352-3 0  9997
2 40040  97.9287 287.6840 0012644 335.6065  24.4564 14.91257746193017
